ONEWEB-0647             
1 56079U 23043AK  23242.90259407  .00000114  00000+0  26898-3 0  9999
2 56079  87.8973 102.5908 0001742 108.0230 252.1090 13.15554498 22147
ONEWEB-0651             
1 56080U 23043AL  23242.89837025  .00000160  00000+0  39054-3 0  9996
2 56080  87.9074 102.5563 0001237  85.1219 275.0053 13.15546432 23345
ONEWEB-0718             
1 56081U 23043AM  23243.04621767 -.00001966  00000+0 -52537-2 0  9996
2 56081  87.8913 102.5901 0002038  67.9026 292.2321 13.15580739 23085
GSLV R/B                
1 56082U 23043AN  23242.67701203  .00022658  00000+0  48218-3 0  9990
2 56082  87.4080  86.7559 0023943 129.0842 231.2551 15.44518734 24262
ONEWEB-0561             
1 56710U 23068A   23242.68409446  .00000465  00000+0  90637-3 0  9994
2 56710  87.9681 111.1522 0001958 106.3345 253.8011 13.34309765 14385
ONEWEB-0668             
1 56711U 23068B   23243.13376268  .00001409  00000+0  18975-3 0  9995
2 56711  86.7201  98.3032 0013386 217.4108 142.6182 14.78407653 16001
ONEWEB-0676             
1 56712U 23068C   23242.87302740  .00001603  00000+0  21705-3 0  9991
2 56712  86.7149  98.3632 0013310 220.7396 139.2830 14.78290630 15277
ONEWEB-0677             
1 56713U 23068D   23242.69233203  .00000034  00000+0  41365-4 0  9991
2 56713  87.9603 109.0075 0001536  72.1496 287.9813 13.34757167 14561
